{"fetched_at":"2026-03-29T02:12:04Z","count":15717,"tles":[{"name":"STARLINK-2422","line1":"1 47832U 21018AX  26087.47983238 -.00000863  00000+0 -17019-4 0  9993","line2":"2 47832  53.1595 158.2137 0001183  93.3559 266.7578 15.30191019279568","category":"Starlink"}]}